      2.10          N: GNSS NAV DATA                        RINEX VERSION / TYPE
fic2rin                                 11/04/2018 00:19:25 PGM / RUN BY / DATE
                                                            END OF HEADER
32 18 11  3  8  0  0.0-3.708428703249e-04 1.352873368887e-11 0.000000000000e+00
    5.700000000000e+01 4.534375000000e+01 4.321251426038e-09 3.077921268347e+00
    2.415850758553e-06 2.305758534931e-03 1.162290573120e-05 5.153724464417e+03
    5.472000000000e+05 3.911554813385e-08 2.857778748859e+00 2.793967723846e-08
    9.572740971200e-01 1.522812500000e+02-2.593187915383e+00-7.896043187607e-09
    3.846588797292e-10 1.000000000000e+00 2.025000000000e+03 0.000000000000e+00
    2.400000000000e+00 0.000000000000e+00 4.656612873077e-10 5.700000000000e+01
    5.400060000000e+05 4.000000000000e+00
31 18 11  3  8  0  0.0 8.231401443481e-05-2.614797267597e-12 0.000000000000e+00
    2.900000000000e+01 2.906250000000e+01 4.887703592473e-09-7.866258062137e-01
    1.410022377968e-06 9.020894882269e-03 4.313886165619e-06 5.153765359879e+03
    5.472000000000e+05 7.636845111847e-08-2.341256102646e+00-1.732259988785e-07
    9.618606569000e-01 2.907187500000e+02-8.800512130940e-02-8.428922527028e-09
    1.557207721095e-10 1.000000000000e+00 2.025000000000e+03 0.000000000000e+00
    2.400000000000e+00 0.000000000000e+00-1.350417733192e-08 2.900000000000e+01
    5.400060000000e+05 4.000000000000e+00
16 18 11  3  8  0  0.0 8.987262845039e-07-2.046363078989e-12 0.000000000000e+00
    6.900000000000e+01-3.359375000000e+01 3.964093691842e-09-3.016788854965e+00
   -1.808628439903e-06 1.010487915482e-02 1.009181141853e-05 5.153724029541e+03
    5.472000000000e+05-7.078051567078e-08-1.239088611231e+00-1.713633537292e-07
    9.852266551019e-01 1.994062500000e+02 5.200574878533e-01-7.658533294367e-09
   -3.971594004260e-10 1.000000000000e+00 2.025000000000e+03 0.000000000000e+00
    2.400000000000e+00 0.000000000000e+00-1.071020960808e-08 6.900000000000e+01
    5.400060000000e+05 4.000000000000e+00
26 18 11  3  8  0  0.0 2.830382436514e-05 1.114131009672e-11 0.000000000000e+00
    5.800000000000e+01-3.625000000000e+01 4.755555230821e-09-2.061791182724e+00
   -2.089887857437e-06 3.123250557110e-03 8.974224328995e-06 5.153744754791e+03
    5.472000000000e+05 1.862645149231e-08-1.344635355014e+00-9.499490261078e-08
    9.537726743802e-01 2.050937500000e+02 4.491153529429e-02-8.216413675181e-09
   -3.853731951976e-10 1.000000000000e+00 2.025000000000e+03 0.000000000000e+00
    2.400000000000e+00 0.000000000000e+00 7.450580596924e-09 5.800000000000e+01
    5.400060000000e+05 4.000000000000e+00
29 18 11  3  8  0  0.0 3.439518623054e-04-7.844391802792e-12 0.000000000000e+00
    6.200000000000e+01 5.446875000000e+01 3.993023468312e-09 2.841367311062e+00
    2.937391400337e-06 6.808777106926e-04 9.421259164810e-06 5.153610361099e+03
    5.472000000000e+05 4.284083843231e-08-2.136549591066e-01-9.313225746155e-09
    9.851503141849e-01 2.097500000000e+02 1.670842649280e+00-7.822111536628e-09
    2.589393572922e-10 1.000000000000e+00 2.025000000000e+03 0.000000000000e+00
    2.400000000000e+00 0.000000000000e+00-1.024454832077e-08 6.200000000000e+01
    5.400060000000e+05 4.000000000000e+00
28 18 11  3  8  0  0.0 7.528122514486e-04 1.818989403546e-12 0.000000000000e+00
    8.000000000000e+01-4.918750000000e+01 3.927306445220e-09-3.083068020421e+00
   -2.540647983551e-06 1.963975909166e-02 9.128823876381e-06 5.153695341110e+03
    5.472000000000e+05 2.775341272354e-07-1.234972306468e+00 5.587935447693e-08
    9.841340996040e-01 2.102187500000e+02-1.503996744324e+00-7.524599144043e-09
   -3.643008888800e-10 1.000000000000e+00 2.025000000000e+03 0.000000000000e+00
    3.400000000000e+00 0.000000000000e+00-1.117587089539e-08 8.000000000000e+01
    5.400060000000e+05 4.000000000000e+00
18 18 11  3  8  0  0.0 7.526110857725e-05 4.092726157978e-12 0.000000000000e+00
    1.640000000000e+02 1.078125000000e+01 5.302720879609e-09-1.038434550967e-01
    6.332993507385e-07 1.497283449862e-02 3.784894943237e-06 5.153615411758e+03
    5.472000000000e+05-1.918524503708e-07 7.253461325722e-01 1.229345798492e-07
    9.515310274524e-01 3.018125000000e+02 1.360977712356e+00-8.933943563181e-09
    1.414344627416e-10 1.000000000000e+00 2.025000000000e+03 0.000000000000e+00
    2.400000000000e+00 0.000000000000e+00-6.519258022308e-09 1.640000000000e+02
    5.400060000000e+05 4.000000000000e+00
11 18 11  3  7 59 44.0-7.037380710244e-04 3.865352482535e-12 0.000000000000e+00
    5.000000000000e+00 5.384375000000e+01 6.204187000720e-09-5.448558935150e-01
    2.892687916756e-06 1.684309530538e-02 5.571171641350e-06 5.153663030624e+03
    5.471840000000e+05-2.160668373108e-07 3.386367261046e-01-5.774199962616e-08
    9.074127302282e-01 2.453437500000e+02 1.836994194799e+00-9.355746847266e-09
    4.500187450871e-10 1.000000000000e+00 2.025000000000e+03 0.000000000000e+00
    2.400000000000e+00 0.000000000000e+00-1.210719347000e-08 5.000000000000e+00
    5.407260000000e+05 4.000000000000e+00
23 18 11  3  7 59 44.0-2.071605995297e-04 9.094947017729e-13 0.000000000000e+00
    1.000000000000e+00 2.984375000000e+01 4.717696510996e-09 9.084254118619e-01
    1.769512891769e-06 1.261468685698e-02 1.196004450321e-05 5.153709241867e+03
    5.471840000000e+05-1.508742570877e-07 2.848914214312e+00 9.126961231232e-08
    9.437538287122e-01 1.427500000000e+02-2.321085671975e+00-8.237128823764e-09
    1.528635102359e-10 1.000000000000e+00 2.025000000000e+03 0.000000000000e+00
    2.400000000000e+00 0.000000000000e+00-2.002343535423e-08 1.000000000000e+00
    5.412060000000e+05 4.000000000000e+00
15 18 11  3  7 59 44.0-3.410452045500e-04 1.250555214938e-12 0.000000000000e+00
    3.000000000000e+00 3.284375000000e+01 5.062710882229e-09 1.398982074087e+00
    1.825392246246e-06 1.097681804094e-02 1.183897256851e-05 5.153594190598e+03
    5.471840000000e+05-1.862645149231e-07 2.777323275234e+00 3.911554813385e-08
    9.284242378533e-01 1.380625000000e+02 7.258004959097e-01-8.363919819404e-09
    7.714607058635e-11 1.000000000000e+00 2.025000000000e+03 0.000000000000e+00
    2.400000000000e+00 0.000000000000e+00-1.117587089539e-08 3.000000000000e+00
    5.412060000000e+05 4.000000000000e+00
28 18 11  3  7 59 44.0 7.528145797551e-04 1.818989403546e-12 0.000000000000e+00
    8.200000000000e+01-4.918750000000e+01 3.926949287486e-09-3.085401845817e+00
   -2.540647983551e-06 1.963975897525e-02 9.128823876381e-06 5.153695344925e+03
    5.471840000000e+05 2.775341272354e-07-1.234972174805e+00 5.587935447693e-08
    9.841341127703e-01 2.102187500000e+02-1.503996646309e+00-7.524599144043e-09
   -3.646580466142e-10 1.000000000000e+00 2.025000000000e+03 0.000000000000e+00
    2.400000000000e+00 0.000000000000e+00-1.117587089539e-08 8.200000000000e+01
    5.466960000000e+05 4.000000000000e+00
 5 18 11  3  9 59 44.0-4.572793841362e-07 2.273736754432e-13 0.000000000000e+00
    4.000000000000e+00-9.340625000000e+01 4.866631286156e-09-2.225928123275e+00
   -4.844740033150e-06 5.599161493592e-03 7.849186658859e-06 5.153569694519e+03
    5.543840000000e+05 1.490116119385e-08 1.794956052976e+00-6.891787052155e-08
    9.482990903149e-01 2.220625000000e+02 7.135224848698e-01-8.215699359713e-09
   -3.392998474863e-10 1.000000000000e+00 2.025000000000e+03 0.000000000000e+00
    2.400000000000e+00 0.000000000000e+00-1.117587089539e-08 4.000000000000e+00
    5.472060000000e+05 4.000000000000e+00
15 18 11  3  9 59 44.0-3.410363569856e-04 1.250555214938e-12 0.000000000000e+00
    4.000000000000e+00 2.387500000000e+01 4.960920927984e-09 2.449124143394e+00
    1.138076186180e-06 1.097690628376e-02 1.175142824650e-05 5.153595867157e+03
    5.543840000000e+05-7.264316082001e-08 2.777263134672e+00-2.160668373108e-07
    9.284260591863e-01 1.365312500000e+02 7.258908866919e-01-8.122481191087e-09
    1.589351917173e-10 1.000000000000e+00 2.025000000000e+03 0.000000000000e+00
    2.400000000000e+00 0.000000000000e+00-1.117587089539e-08 4.000000000000e+00
    5.472060000000e+05 4.000000000000e+00
11 18 11  3  9 59 44.0-7.037105970085e-04 3.865352482535e-12 0.000000000000e+00
    2.600000000000e+01 5.465625000000e+01 6.271689812483e-09 5.053343774795e-01
    2.801418304443e-06 1.684222975746e-02 5.329027771950e-06 5.153661336899e+03
    5.543840000000e+05-1.676380634308e-07 3.385696981241e-01-1.713633537292e-07
    9.074155916960e-01 2.516562500000e+02 1.837004149956e+00-9.368604525697e-09
    3.685867816904e-10 1.000000000000e+00 2.025000000000e+03 0.000000000000e+00
    2.400000000000e+00 0.000000000000e+00-1.210719347000e-08 2.600000000000e+01
    5.472060000000e+05 4.000000000000e+00
23 18 11  3  9 59 44.0-2.071536146104e-04 9.094947017729e-13 0.000000000000e+00
    3.200000000000e+01 3.625000000000e+01 4.744483341061e-09 1.958645087510e+00
    1.719221472740e-06 1.261525449809e-02 1.236051321030e-05 5.153707986832e+03
    5.543840000000e+05-2.272427082062e-07 2.848854574068e+00-1.210719347000e-07
    9.437556149352e-01 1.339062500000e+02-2.321144693405e+00-8.094265730086e-09
    2.407243128482e-10 1.000000000000e+00 2.025000000000e+03 0.000000000000e+00
    2.400000000000e+00 0.000000000000e+00-2.002343535423e-08 3.200000000000e+01
    5.472060000000e+05 4.000000000000e+00
28 18 11  3  9 59 44.0 7.528276182711e-04 1.818989403546e-12 0.000000000000e+00
    8.400000000000e+01-3.896875000000e+01 3.912662978118e-09-2.035291910969e+00
   -1.724809408188e-06 1.964043139014e-02 9.307637810707e-06 5.153693244934e+03
    5.543840000000e+05 2.607703208923e-07-1.235026291071e+00 2.309679985046e-07
    9.841315277941e-01 2.051562500000e+02-1.503943365369e+00-7.575672700033e-09
   -3.568005764619e-10 1.000000000000e+00 2.025000000000e+03 0.000000000000e+00
    2.400000000000e+00 0.000000000000e+00-1.117587089539e-08 8.400000000000e+01
    5.472060000000e+05 4.000000000000e+00
